STARLINK-4275           
1 53008U 22076Y   26068.78874537  .00000244  00000+0  33402-4 0  9999
2 53008  53.2171  93.6662 0001399  82.4868 277.6283 15.08840177202861
DISKSAT B               
1 67220U 25305B   26068.81497770  .00012481  00000+0  82401-3 0  9990
2 67220  45.0018 250.2098 0003783 311.4052  48.6498 15.07484556 12311
